{"fetched_at":"2026-07-19T17:31:14.814Z","source":"https://celestrak.org/NORAD/elements/gp.php?GROUP=spire&FORMAT=JSON","constellation":"spire","records":[{"OBJECT_NAME":"LEMUR-2-MYRA","OBJECT_ID":"2025-276EC","EPOCH":"2026-07-19T03:17:45.921120","CLASSIFICATION_TYPE":"U","MEAN_MOTION":15.00614845,"ECCENTRICITY":0.0018616,"INCLINATION":97.522,"RA_OF_ASC_NODE":269.9778,"ARG_OF_PERICENTER":42.2452,"MEAN_ANOMALY":318.0202,"EPHEMERIS_TYPE":0,"NORAD_CAT_ID":66787,"ELEMENT_SET_NO":999,"REV_AT_EPOCH":3500,"BSTAR":0.0002547125,"MEAN_MOTION_DOT":0.00003172,"MEAN_MOTION_DDOT":0},{"OBJECT_NAME":"LEMUR-2 FIKRETDENGIZ","OBJECT_ID":"2026-004A","EPOCH":"2026-07-18T23:59:08.634336","CLASSIFICATION_TYPE":"U","MEAN_MOTION":14.88531966,"ECCENTRICITY":0.00099162,"INCLINATION":97.8032,"RA_OF_ASC_NODE":198.0748,"ARG_OF_PERICENTER":45.1686,"MEAN_ANOMALY":315.0335,"EPHEMERIS_TYPE":0,"NORAD_CAT_ID":67363,"ELEMENT_SET_NO":999,"REV_AT_EPOCH":2801,"BSTAR":0.00023850479,"MEAN_MOTION_DOT":0.00002165,"MEAN_MOTION_DDOT":0},{"OBJECT_NAME":"TWILIGHT-1 OBJECT B","OBJECT_ID":"2026-004B","EPOCH":"2026-07-19T05:45:50.693184","CLASSIFICATION_TYPE":"U","MEAN_MOTION":14.87800972,"ECCENTRICITY":0.00094394,"INCLINATION":97.8077,"RA_OF_ASC_NODE":198.3105,"ARG_OF_PERICENTER":34.1425,"MEAN_ANOMALY":326.0396,"EPHEMERIS_TYPE":0,"NORAD_CAT_ID":67364,"ELEMENT_SET_NO":999,"REV_AT_EPOCH":2805,"BSTAR":0.000098627322,"MEAN_MOTION_DOT":0.00000847,"MEAN_MOTION_DDOT":0},{"OBJECT_NAME":"LEMUR-2-MARIO-SOUSA","OBJECT_ID":"2026-004C","EPOCH":"2026-07-18T23:29:21.945408","CLASSIFICATION_TYPE":"U","MEAN_MOTION":14.88744542,"ECCENTRICITY":0.0009565,"INCLINATION":97.8005,"RA_OF_ASC_NODE":198.0493,"ARG_OF_PERICENTER":46.6501,"MEAN_ANOMALY":313.5512,"EPHEMERIS_TYPE":0,"NORAD_CAT_ID":67365,"ELEMENT_SET_NO":999,"REV_AT_EPOCH":2802,"BSTAR":0.00021004198,"MEAN_MOTION_DOT":0.0000191,"MEAN_MOTION_DDOT":0},{"OBJECT_NAME":"LEMUR-2-SONNENBLUME","OBJECT_ID":"2026-004E","EPOCH":"2026-07-19T06:01:42.248352","CLASSIFICATION_TYPE":"U","MEAN_MOTION":14.88464736,"ECCENTRICITY":0.00091766,"INCLINATION":97.8003,"RA_OF_ASC_NODE":198.2885,"ARG_OF_PERICENTER":46.8859,"MEAN_ANOMALY":313.3124,"EPHEMERIS_TYPE":0,"NORAD_CAT_ID":67367,"ELEMENT_SET_NO":999,"REV_AT_EPOCH":2806,"BSTAR":0.00014520029,"MEAN_MOTION_DOT":0.00001294,"MEAN_MOTION_DDOT":0},{"OBJECT_NAME":"LEMUR-2-WOBLER","OBJECT_ID":"2026-004F","EPOCH":"2026-07-19T05:45:18.587808","CLASSIFICATION_TYPE":"U","MEAN_MOTION":14.88713707,"ECCENTRICITY":0.00092006,"INCLINATION":97.8056,"RA_OF_ASC_NODE":198.4326,"ARG_OF_PERICENTER":38.3918,"MEAN_ANOMALY":321.7952,"EPHEMERIS_TYPE":0,"NORAD_CAT_ID":67368,"ELEMENT_SET_NO":999,"REV_AT_EPOCH":2806,"BSTAR":0.00017172689,"MEAN_MOTION_DOT":0.0000155,"MEAN_MOTION_DDOT":0},{"OBJECT_NAME":"LEMUR-2-GRAM-E-SUE","OBJECT_ID":"2026-004H","EPOCH":"2026-07-18T23:07:14.310048","CLASSIFICATION_TYPE":"U","MEAN_MOTION":14.88598817,"ECCENTRICITY":0.00083707,"INCLINATION":97.7988,"RA_OF_ASC_NODE":198.0217,"ARG_OF_PERICENTER":50.7985,"MEAN_ANOMALY":309.3974,"EPHEMERIS_TYPE":0,"NORAD_CAT_ID":67370,"ELEMENT_SET_NO":999,"REV_AT_EPOCH":2802,"BSTAR":0.00013087766,"MEAN_MOTION_DOT":0.00001165,"MEAN_MOTION_DDOT":0},{"OBJECT_NAME":"LEMUR-2-KATIE","OBJECT_ID":"2026-004AA","EPOCH":"2026-07-19T06:02:38.238144","CLASSIFICATION_TYPE":"U","MEAN_MOTION":14.90269795,"ECCENTRICITY":0.00031154,"INCLINATION":97.8049,"RA_OF_ASC_NODE":198.8709,"ARG_OF_PERICENTER":23.8338,"MEAN_ANOMALY":336.3023,"EPHEMERIS_TYPE":0,"NORAD_CAT_ID":67387,"ELEMENT_SET_NO":999,"REV_AT_EPOCH":2808,"BSTAR":0.00021541171,"MEAN_MOTION_DOT":0.00002036,"MEAN_MOTION_DDOT":0},{"OBJECT_NAME":"LEMUR-2-HCS-BAZUS","OBJECT_ID":"2026-004AB","EPOCH":"2026-07-19T06:00:13.898304","CLASSIFICATION_TYPE":"U","MEAN_MOTION":14.90278599,"ECCENTRICITY":0.00026413,"INCLINATION":97.8039,"RA_OF_ASC_NODE":198.847,"ARG_OF_PERICENTER":25.2355,"MEAN_ANOMALY":334.8991,"EPHEMERIS_TYPE":0,"NORAD_CAT_ID":67388,"ELEMENT_SET_NO":999,"REV_AT_EPOCH":2808,"BSTAR":0.00018934613,"MEAN_MOTION_DOT":0.00001783,"MEAN_MOTION_DDOT":0}]}
